TRANSPORTER-16 OBJECT AY
1 68462U 26067AY  26112.83920015  .00006171  00000+0  30724-3 0  9990
2 68462  97.4521  72.1336 0001870 166.8330 193.2953 15.17943590  3549
GARAI-B (UNAMUNO)       
1 68463U 26067AZ  26112.91378134  .00001737  00000+0  90531-4 0  9995
2 68463  97.4501  72.1806 0001648 257.4330 102.6719 15.17295420  3557
TRANSPORTER-16 OBJECT BA
1 68464U 26067BA  26113.11177299  .00003769  00000+0  19235-3 0  9996
2 68464  97.4484  72.3684 0001354 271.8528  88.2551 15.17320928  3585
TRANSPORTER-16 OBJECT BB
1 68465U 26067BB  26112.84829143  .00002537  00000+0  13079-3 0  9990
2 68465  97.4489  72.1102 0001386 270.5285  89.5790 15.17271363  3548
TRANSPORTER-16 OBJECT BC
1 68466U 26067BC  26113.12020000  .00005371  00000+0  27649-3 0  9995
2 68466  97.4450  72.3476 0004107 274.1560  85.9203 15.16823991  3439
TRANSPORTER-16 OBJECT BD
1 68467U 26067BD  26113.11627336  .00012097  00000+0  61025-3 0  9999
2 68467  97.4380  72.3356 0004040 266.5317  93.5455 15.17268853  3581
ERMIS-1                 
1 68468U 26067BE  26113.12129447  .00006200  00000+0  31896-3 0  9993
2 68468  97.4521  72.3683 0004843 240.3973 119.6778 15.16786115  3584
TRANSPORTER-16 OBJECT BF
1 68469U 26067BF  26113.04530323  .00002515  00000+0  12949-3 0  9997
2 68469  97.4507  72.3118 0001468 251.7340 108.3734 15.17324834  3579
TRANSPORTER-16 OBJECT BG
1 68470U 26067BG  26113.12192507  .00005438  00000+0  28062-3 0  9996
2 68470  97.4442  72.3451 0004952 257.4623 102.6057 15.16734058  3585
TRANSPORTER-16 OBJECT BH
1 68471U 26067BH  26112.85584166  .00004477  00000+0  45814-3 0  9998
2 68471  97.7546  71.9492 0002394 212.8191 147.2879 14.91020387  3488
FLYLAB1                 
1 68472U 26067BJ  26112.85752589  .00000473  00000+0  53595-4 0  9993
2 68472  97.7592  71.9576 0003427 203.7806 156.3254 14.90856586  3488
TRANSPORTER-16 OBJECT BK
1 68473U 26067BK  26113.10257501  .00005598  00000+0  27882-3 0  9999
2 68473  97.4504  72.3873 0001601 162.7899 197.3389 15.17971361  3564
BLACK KITE-2            
1 68474U 26067BL  26113.10332725  .00002609  00000+0  26072-3 0  9992
2 68474  97.7513  72.2332 0003966  77.2364 282.9298 14.92321720  3515
TRANSPORTER-16 OBJECT BM
1 68475U 26067BM  26113.12374758  .00005283  00000+0  53809-3 0  9996
2 68475  97.7493  72.2026 0001906 225.2408 134.8655 14.91130016  2997
TRANSPORTER-16 OBJECT BN
1 68476U 26067BN  26113.10362496  .00003679  00000+0  36539-3 0  9999
2 68476  97.7530  72.2356 0004175  87.8910 272.2787 14.92320331  3511
TRANSPORTER-16 OBJECT BP
1 68477U 26067BP  26112.85530076  .00004711  00000+0  48072-3 0  9995
2 68477  97.7500  71.9395 0002468 230.3483 129.7518 14.91102302  2883
