[{"OBJECT_NAME":"TRANSPORTER-16 OBJECT AY","OBJECT_ID":"2026-067AY","EPOCH":"2026-04-22T20:08:26.892960","MEAN_MOTION":15.1794359,"ECCENTRICITY":0.000187,"INCLINATION":97.4521,"RA_OF_ASC_NODE":72.1336,"ARG_OF_PERICENTER":166.833,"MEAN_ANOMALY":193.2953,"EPHEMERIS_TYPE":0,"CLASSIFICATION_TYPE":"U","NORAD_CAT_ID":68462,"ELEMENT_SET_NO":999,"REV_AT_EPOCH":354,"BSTAR":0.00030724,"MEAN_MOTION_DOT":6.171e-5,"MEAN_MOTION_DDOT":0},{"OBJECT_NAME":"GARAI-B (UNAMUNO)","OBJECT_ID":"2026-067AZ","EPOCH":"2026-04-22T21:55:50.707776","MEAN_MOTION":15.1729542,"ECCENTRICITY":0.0001648,"INCLINATION":97.4501,"RA_OF_ASC_NODE":72.1806,"ARG_OF_PERICENTER":257.433,"MEAN_ANOMALY":102.6719,"EPHEMERIS_TYPE":0,"CLASSIFICATION_TYPE":"U","NORAD_CAT_ID":68463,"ELEMENT_SET_NO":999,"REV_AT_EPOCH":355,"BSTAR":9.0531e-5,"MEAN_MOTION_DOT":1.737e-5,"MEAN_MOTION_DDOT":0},{"OBJECT_NAME":"TRANSPORTER-16 OBJECT BA","OBJECT_ID":"2026-067BA","EPOCH":"2026-04-23T02:40:57.186336","MEAN_MOTION":15.17320928,"ECCENTRICITY":0.0001354,"INCLINATION":97.4484,"RA_OF_ASC_NODE":72.3684,"ARG_OF_PERICENTER":271.8528,"MEAN_ANOMALY":88.2551,"EPHEMERIS_TYPE":0,"CLASSIFICATION_TYPE":"U","NORAD_CAT_ID":68464,"ELEMENT_SET_NO":999,"REV_AT_EPOCH":358,"BSTAR":0.00019234699,"MEAN_MOTION_DOT":3.769e-5,"MEAN_MOTION_DDOT":0},{"OBJECT_NAME":"TRANSPORTER-16 OBJECT BB","OBJECT_ID":"2026-067BB","EPOCH":"2026-04-22T20:21:32.379552","MEAN_MOTION":15.17271363,"ECCENTRICITY":0.00013862,"INCLINATION":97.4489,"RA_OF_ASC_NODE":72.1102,"ARG_OF_PERICENTER":270.5285,"MEAN_ANOMALY":89.579,"EPHEMERIS_TYPE":0,"CLASSIFICATION_TYPE":"U","NORAD_CAT_ID":68465,"ELEMENT_SET_NO":999,"REV_AT_EPOCH":354,"BSTAR":0.00013079248,"MEAN_MOTION_DOT":2.537e-5,"MEAN_MOTION_DDOT":0},{"OBJECT_NAME":"TRANSPORTER-16 OBJECT BC","OBJECT_ID":"2026-067BC","EPOCH":"2026-04-23T02:53:05.280000","MEAN_MOTION":15.16823991,"ECCENTRICITY":0.00041072,"INCLINATION":97.445,"RA_OF_ASC_NODE":72.3476,"ARG_OF_PERICENTER":274.156,"MEAN_ANOMALY":85.9203,"EPHEMERIS_TYPE":0,"CLASSIFICATION_TYPE":"U","NORAD_CAT_ID":68466,"ELEMENT_SET_NO":999,"REV_AT_EPOCH":343,"BSTAR":0.00027649189,"MEAN_MOTION_DOT":5.371e-5,"MEAN_MOTION_DDOT":0},{"OBJECT_NAME":"TRANSPORTER-16 OBJECT BD","OBJECT_ID":"2026-067BD","EPOCH":"2026-04-23T02:47:26.018304","MEAN_MOTION":15.17268853,"ECCENTRICITY":0.00040404,"INCLINATION":97.438,"RA_OF_ASC_NODE":72.3356,"ARG_OF_PERICENTER":266.5317,"MEAN_ANOMALY":93.5455,"EPHEMERIS_TYPE":0,"CLASSIFICATION_TYPE":"U","NORAD_CAT_ID":68467,"ELEMENT_SET_NO":999,"REV_AT_EPOCH":358,"BSTAR":0.00061025331,"MEAN_MOTION_DOT":0.00012097,"MEAN_MOTION_DDOT":0},{"OBJECT_NAME":"ERMIS-1","OBJECT_ID":"2026-067BE","EPOCH":"2026-04-23T02:54:39.842208","MEAN_MOTION":15.16786115,"ECCENTRICITY":0.0004843,"INCLINATION":97.4521,"RA_OF_ASC_NODE":72.3683,"ARG_OF_PERICENTER":240.3973,"MEAN_ANOMALY":119.6778,"EPHEMERIS_TYPE":0,"CLASSIFICATION_TYPE":"U","NORAD_CAT_ID":68468,"ELEMENT_SET_NO":999,"REV_AT_EPOCH":358,"BSTAR":0.00031896164,"MEAN_MOTION_DOT":6.2e-5,"MEAN_MOTION_DDOT":0},{"OBJECT_NAME":"TRANSPORTER-16 OBJECT BF","OBJECT_ID":"2026-067BF","EPOCH":"2026-04-23T01:05:14.199072","MEAN_MOTION":15.17324834,"ECCENTRICITY":0.00014682,"INCLINATION":97.4507,"RA_OF_ASC_NODE":72.3118,"ARG_OF_PERICENTER":251.734,"MEAN_ANOMALY":108.3734,"EPHEMERIS_TYPE":0,"CLASSIFICATION_TYPE":"U","NORAD_CAT_ID":68469,"ELEMENT_SET_NO":999,"REV_AT_EPOCH":357,"BSTAR":0.00012949118,"MEAN_MOTION_DOT":2.515e-5,"MEAN_MOTION_DDOT":0},{"OBJECT_NAME":"TRANSPORTER-16 OBJECT BG","OBJECT_ID":"2026-067BG","EPOCH":"2026-04-23T02:55:34.326048","MEAN_MOTION":15.16734058,"ECCENTRICITY":0.00049529,"INCLINATION":97.4442,"RA_OF_ASC_NODE":72.3451,"ARG_OF_PERICENTER":257.4623,"MEAN_ANOMALY":102.6057,"EPHEMERIS_TYPE":0,"CLASSIFICATION_TYPE":"U","NORAD_CAT_ID":68470,"ELEMENT_SET_NO":999,"REV_AT_EPOCH":358,"BSTAR":0.00028061629,"MEAN_MOTION_DOT":5.438e-5,"MEAN_MOTION_DDOT":0},{"OBJECT_NAME":"TRANSPORTER-16 OBJECT BH","OBJECT_ID":"2026-067BH","EPOCH":"2026-04-22T20:32:24.719424","MEAN_MOTION":14.91020387,"ECCENTRICITY":0.00023941,"INCLINATION":97.7546,"RA_OF_ASC_NODE":71.9492,"ARG_OF_PERICENTER":212.8191,"MEAN_ANOMALY":147.2879,"EPHEMERIS_TYPE":0,"CLASSIFICATION_TYPE":"U","NORAD_CAT_ID":68471,"ELEMENT_SET_NO":999,"REV_AT_EPOCH":348,"BSTAR":0.00045813813,"MEAN_MOTION_DOT":4.477e-5,"MEAN_MOTION_DDOT":0},{"OBJECT_NAME":"FLYLAB1","OBJECT_ID":"2026-067BJ","EPOCH":"2026-04-22T20:34:50.236896","MEAN_MOTION":14.90856586,"ECCENTRICITY":0.00034272,"INCLINATION":97.7592,"RA_OF_ASC_NODE":71.9576,"ARG_OF_PERICENTER":203.7806,"MEAN_ANOMALY":156.3254,"EPHEMERIS_TYPE":0,"CLASSIFICATION_TYPE":"U","NORAD_CAT_ID":68472,"ELEMENT_SET_NO":999,"REV_AT_EPOCH":348,"BSTAR":5.3595057e-5,"MEAN_MOTION_DOT":4.73e-6,"MEAN_MOTION_DDOT":0},{"OBJECT_NAME":"TRANSPORTER-16 OBJECT BK","OBJECT_ID":"2026-067BK","EPOCH":"2026-04-23T02:27:42.480864","MEAN_MOTION":15.17971361,"ECCENTRICITY":0.00016019,"INCLINATION":97.4504,"RA_OF_ASC_NODE":72.3873,"ARG_OF_PERICENTER":162.7899,"MEAN_ANOMALY":197.3389,"EPHEMERIS_TYPE":0,"CLASSIFICATION_TYPE":"U","NORAD_CAT_ID":68473,"ELEMENT_SET_NO":999,"REV_AT_EPOCH":356,"BSTAR":0.00027882021,"MEAN_MOTION_DOT":5.598e-5,"MEAN_MOTION_DDOT":0},{"OBJECT_NAME":"BLACK KITE-2","OBJECT_ID":"2026-067BL","EPOCH":"2026-04-23T02:28:47.474400","MEAN_MOTION":14.9232172,"ECCENTRICITY":0.00039666,"INCLINATION":97.7513,"RA_OF_ASC_NODE":72.2332,"ARG_OF_PERICENTER":77.2364,"MEAN_ANOMALY":282.9298,"EPHEMERIS_TYPE":0,"CLASSIFICATION_TYPE":"U","NORAD_CAT_ID":68474,"ELEMENT_SET_NO":999,"REV_AT_EPOCH":351,"BSTAR":0.00026072258,"MEAN_MOTION_DOT":2.609e-5,"MEAN_MOTION_DDOT":0},{"OBJECT_NAME":"TRANSPORTER-16 OBJECT BM","OBJECT_ID":"2026-067BM","EPOCH":"2026-04-23T02:58:11.790912","MEAN_MOTION":14.91130016,"ECCENTRICITY":0.00019066,"INCLINATION":97.7493,"RA_OF_ASC_NODE":72.2026,"ARG_OF_PERICENTER":225.2408,"MEAN_ANOMALY":134.8655,"EPHEMERIS_TYPE":0,"CLASSIFICATION_TYPE":"U","NORAD_CAT_ID":68475,"ELEMENT_SET_NO":999,"REV_AT_EPOCH":299,"BSTAR":0.00053809451,"MEAN_MOTION_DOT":5.283e-5,"MEAN_MOTION_DDOT":0},{"OBJECT_NAME":"TRANSPORTER-16 OBJECT BN","OBJECT_ID":"2026-067BN","EPOCH":"2026-04-23T02:29:13.196544","MEAN_MOTION":14.92320331,"ECCENTRICITY":0.00041751,"INCLINATION":97.753,"RA_OF_ASC_NODE":72.2356,"ARG_OF_PERICENTER":87.891,"MEAN_ANOMALY":272.2787,"EPHEMERIS_TYPE":0,"CLASSIFICATION_TYPE":"U","NORAD_CAT_ID":68476,"ELEMENT_SET_NO":999,"REV_AT_EPOCH":351,"BSTAR":0.00036538917,"MEAN_MOTION_DOT":3.679e-5,"MEAN_MOTION_DDOT":0},{"OBJECT_NAME":"TRANSPORTER-16 OBJECT BP","OBJECT_ID":"2026-067BP","EPOCH":"2026-04-22T20:31:37.985664","MEAN_MOTION":14.91102302,"ECCENTRICITY":0.00024688,"INCLINATION":97.75,"RA_OF_ASC_NODE":71.9395,"ARG_OF_PERICENTER":230.3483,"MEAN_ANOMALY":129.7518,"EPHEMERIS_TYPE":0,"CLASSIFICATION_TYPE":"U","NORAD_CAT_ID":68477,"ELEMENT_SET_NO":999,"REV_AT_EPOCH":288,"BSTAR":0.00048072279,"MEAN_MOTION_DOT":4.711e-5,"MEAN_MOTION_DDOT":0}]
